CCSDS_OMM_VERS = 2.0
CREATION_DATE  = 
ORIGINATOR     = 

OBJECT_NAME    = STARLINK-36713
OBJECT_ID      = 2026-025J
CENTER_NAME    = EARTH
REF_FRAME      = TEME
TIME_SYSTEM    = UTC
MEAN_ELEMENT_THEORY = SGP/SGP4

EPOCH          = 2026-03-07T19:24:30.568032
MEAN_MOTION    = 15.75261678
ECCENTRICITY   = .00019351
INCLINATION    = 97.2839
RA_OF_ASC_NODE = 178.2886
ARG_OF_PERICENTER = 46.9643
MEAN_ANOMALY   = 313.1784

EPHEMERIS_TYPE = 0
CLASSIFICATION_TYPE = U
NORAD_CAT_ID   = 67701
ELEMENT_SET_NO = 999
REV_AT_EPOCH   = 565
BSTAR          = .24413722E-2
MEAN_MOTION_DOT = .381969E-2
MEAN_MOTION_DDOT = 0

CCSDS_OMM_VERS = 2.0
CREATION_DATE  = 
ORIGINATOR     = 

OBJECT_NAME    = STARLINK-36695
OBJECT_ID      = 2026-025K
CENTER_NAME    = EARTH
REF_FRAME      = TEME
TIME_SYSTEM    = UTC
MEAN_ELEMENT_THEORY = SGP/SGP4

EPOCH          = 2026-03-07T19:27:33.037920
MEAN_MOTION    = 15.75189001
ECCENTRICITY   = .00016144
INCLINATION    = 97.2867
RA_OF_ASC_NODE = 178.2866
ARG_OF_PERICENTER = 103.7340
MEAN_ANOMALY   = 256.4105

EPHEMERIS_TYPE = 0
CLASSIFICATION_TYPE = U
NORAD_CAT_ID   = 67702
ELEMENT_SET_NO = 999
REV_AT_EPOCH   = 564
BSTAR          = .66257327E-3
MEAN_MOTION_DOT = .99857E-3
MEAN_MOTION_DDOT = 0

CCSDS_OMM_VERS = 2.0
CREATION_DATE  = 
ORIGINATOR     = 

OBJECT_NAME    = STARLINK-36630
OBJECT_ID      = 2026-025L
CENTER_NAME    = EARTH
REF_FRAME      = TEME
TIME_SYSTEM    = UTC
MEAN_ELEMENT_THEORY = SGP/SGP4

EPOCH          = 2026-03-08T04:00:01.999584
MEAN_MOTION    = 15.75125450
ECCENTRICITY   = .0001419
INCLINATION    = 97.2839
RA_OF_ASC_NODE = 178.7568
ARG_OF_PERICENTER = 83.5481
MEAN_ANOMALY   = 357.3112

EPHEMERIS_TYPE = 0
CLASSIFICATION_TYPE = U
NORAD_CAT_ID   = 67703
ELEMENT_SET_NO = 999
REV_AT_EPOCH   = 561
BSTAR          = .84504E-3
MEAN_MOTION_DOT = .127456E-2
MEAN_MOTION_DDOT = 0

CCSDS_OMM_VERS = 2.0
CREATION_DATE  = 
ORIGINATOR     = 

OBJECT_NAME    = STARLINK-36338
OBJECT_ID      = 2026-025M
CENTER_NAME    = EARTH
REF_FRAME      = TEME
TIME_SYSTEM    = UTC
MEAN_ELEMENT_THEORY = SGP/SGP4

EPOCH          = 2026-03-07T21:59:31.079616
MEAN_MOTION    = 15.75219160
ECCENTRICITY   = .00021001
INCLINATION    = 97.2826
RA_OF_ASC_NODE = 178.4477
ARG_OF_PERICENTER = 68.7910
MEAN_ANOMALY   = 291.3580

EPHEMERIS_TYPE = 0
CLASSIFICATION_TYPE = U
NORAD_CAT_ID   = 67704
ELEMENT_SET_NO = 999
REV_AT_EPOCH   = 566
BSTAR          = .12237663E-2
MEAN_MOTION_DOT = .186689E-2
MEAN_MOTION_DDOT = 0

CCSDS_OMM_VERS = 2.0
CREATION_DATE  = 
ORIGINATOR     = 

OBJECT_NAME    = STARLINK-36316
OBJECT_ID      = 2026-025N
CENTER_NAME    = EARTH
REF_FRAME      = TEME
TIME_SYSTEM    = UTC
MEAN_ELEMENT_THEORY = SGP/SGP4

EPOCH          = 2026-03-07T19:10:47.484480
MEAN_MOTION    = 15.75444909
ECCENTRICITY   = .00021838
INCLINATION    = 97.2838
RA_OF_ASC_NODE = 178.3028
ARG_OF_PERICENTER = 25.4412
MEAN_ANOMALY   = 334.6961

EPHEMERIS_TYPE = 0
CLASSIFICATION_TYPE = U
NORAD_CAT_ID   = 67705
ELEMENT_SET_NO = 999
REV_AT_EPOCH   = 564
BSTAR          = .37473765E-2
MEAN_MOTION_DOT = .607056E-2
MEAN_MOTION_DDOT = 0

CCSDS_OMM_VERS = 2.0
CREATION_DATE  = 
ORIGINATOR     = 

OBJECT_NAME    = STARLINK-36707
OBJECT_ID      = 2026-025P
CENTER_NAME    = EARTH
REF_FRAME      = TEME
TIME_SYSTEM    = UTC
MEAN_ELEMENT_THEORY = SGP/SGP4

EPOCH          = 2026-03-07T18:42:20.242944
MEAN_MOTION    = 15.75444322
ECCENTRICITY   = .00023956
INCLINATION    = 97.2845
RA_OF_ASC_NODE = 178.3284
ARG_OF_PERICENTER = 33.2356
MEAN_ANOMALY   = 326.9059

EPHEMERIS_TYPE = 0
CLASSIFICATION_TYPE = U
NORAD_CAT_ID   = 67706
ELEMENT_SET_NO = 999
REV_AT_EPOCH   = 564
BSTAR          = .37485968E-2
MEAN_MOTION_DOT = .607242E-2
MEAN_MOTION_DDOT = 0

CCSDS_OMM_VERS = 2.0
CREATION_DATE  = 
ORIGINATOR     = 

OBJECT_NAME    = STARLINK-36645
OBJECT_ID      = 2026-025Q
CENTER_NAME    = EARTH
REF_FRAME      = TEME
TIME_SYSTEM    = UTC
MEAN_ELEMENT_THEORY = SGP/SGP4

EPOCH          = 2026-03-08T01:22:17.560416
MEAN_MOTION    = 15.75211091
ECCENTRICITY   = .000124
INCLINATION    = 97.2857
RA_OF_ASC_NODE = 178.5629
ARG_OF_PERICENTER = 91.4775
MEAN_ANOMALY   = 268.6633

EPHEMERIS_TYPE = 0
CLASSIFICATION_TYPE = U
NORAD_CAT_ID   = 67707
ELEMENT_SET_NO = 999
REV_AT_EPOCH   = 568
BSTAR          = .14104E-2
MEAN_MOTION_DOT = .215838E-2
MEAN_MOTION_DDOT = 0

CCSDS_OMM_VERS = 2.0
CREATION_DATE  = 
ORIGINATOR     = 

OBJECT_NAME    = STARLINK-36287
OBJECT_ID      = 2026-025R
CENTER_NAME    = EARTH
REF_FRAME      = TEME
TIME_SYSTEM    = UTC
MEAN_ELEMENT_THEORY = SGP/SGP4

EPOCH          = 2026-03-08T04:00:01.999584
MEAN_MOTION    = 15.75116073
ECCENTRICITY   = .0001341
INCLINATION    = 97.2845
RA_OF_ASC_NODE = 178.7667
ARG_OF_PERICENTER = 82.3286
MEAN_ANOMALY   = 22.5372

EPHEMERIS_TYPE = 0
CLASSIFICATION_TYPE = U
NORAD_CAT_ID   = 67708
ELEMENT_SET_NO = 999
REV_AT_EPOCH   = 577
BSTAR          = .86623E-3
MEAN_MOTION_DOT = .130649E-2
MEAN_MOTION_DDOT = 0

CCSDS_OMM_VERS = 2.0
CREATION_DATE  = 
ORIGINATOR     = 

OBJECT_NAME    = STARLINK-36698
OBJECT_ID      = 2026-025S
CENTER_NAME    = EARTH
REF_FRAME      = TEME
TIME_SYSTEM    = UTC
MEAN_ELEMENT_THEORY = SGP/SGP4

EPOCH          = 2026-03-08T04:00:01.999584
MEAN_MOTION    = 15.75147409
ECCENTRICITY   = .0001393
INCLINATION    = 97.2842
RA_OF_ASC_NODE = 178.7851
ARG_OF_PERICENTER = 86.1446
MEAN_ANOMALY   = 62.6973

EPHEMERIS_TYPE = 0
CLASSIFICATION_TYPE = U
NORAD_CAT_ID   = 67709
ELEMENT_SET_NO = 999
REV_AT_EPOCH   = 561
BSTAR          = .69131E-3
MEAN_MOTION_DOT = .104057E-2
MEAN_MOTION_DDOT = 0

CCSDS_OMM_VERS = 2.0
CREATION_DATE  = 
ORIGINATOR     = 

OBJECT_NAME    = STARLINK-36344
OBJECT_ID      = 2026-025T
CENTER_NAME    = EARTH
REF_FRAME      = TEME
TIME_SYSTEM    = UTC
MEAN_ELEMENT_THEORY = SGP/SGP4

EPOCH          = 2026-03-08T00:42:09.486144
MEAN_MOTION    = 15.75220619
ECCENTRICITY   = .0001899
INCLINATION    = 97.2842
RA_OF_ASC_NODE = 178.6009
ARG_OF_PERICENTER = 76.2482
MEAN_ANOMALY   = 283.8994

EPHEMERIS_TYPE = 0
CLASSIFICATION_TYPE = U
NORAD_CAT_ID   = 67710
ELEMENT_SET_NO = 999
REV_AT_EPOCH   = 569
BSTAR          = .24593E-2
MEAN_MOTION_DOT = .384201E-2
MEAN_MOTION_DDOT = 0

CCSDS_OMM_VERS = 2.0
CREATION_DATE  = 
ORIGINATOR     = 

OBJECT_NAME    = STARLINK-36687
OBJECT_ID      = 2026-025U
CENTER_NAME    = EARTH
REF_FRAME      = TEME
TIME_SYSTEM    = UTC
MEAN_ELEMENT_THEORY = SGP/SGP4

EPOCH          = 2026-03-07T22:36:31.242528
MEAN_MOTION    = 15.80873786
ECCENTRICITY   = .00015761
INCLINATION    = 97.2840
RA_OF_ASC_NODE = 178.5657
ARG_OF_PERICENTER = 90.5918
MEAN_ANOMALY   = 269.5531

EPHEMERIS_TYPE = 0
CLASSIFICATION_TYPE = U
NORAD_CAT_ID   = 67711
ELEMENT_SET_NO = 999
REV_AT_EPOCH   = 568
BSTAR          = .11115234E-2
MEAN_MOTION_DOT = .218769E-2
MEAN_MOTION_DDOT = 0

CCSDS_OMM_VERS = 2.0
CREATION_DATE  = 
ORIGINATOR     = 

OBJECT_NAME    = STARLINK-36705
OBJECT_ID      = 2026-025V
CENTER_NAME    = EARTH
REF_FRAME      = TEME
TIME_SYSTEM    = UTC
MEAN_ELEMENT_THEORY = SGP/SGP4

EPOCH          = 2026-03-07T18:47:55.206240
MEAN_MOTION    = 15.75365956
ECCENTRICITY   = .00012822
INCLINATION    = 97.2858
RA_OF_ASC_NODE = 178.3191
ARG_OF_PERICENTER = 26.5073
MEAN_ANOMALY   = 333.6257

EPHEMERIS_TYPE = 0
CLASSIFICATION_TYPE = U
NORAD_CAT_ID   = 67712
ELEMENT_SET_NO = 999
REV_AT_EPOCH   = 564
BSTAR          = .25711057E-2
MEAN_MOTION_DOT = .405216E-2
MEAN_MOTION_DDOT = 0

