STARLINK-36713          
1 67701U 26025J   26066.80868713  .00381969  00000+0  24414-2 0  9999
2 67701  97.2839 178.2886 0001935  46.9643 313.1784 15.75261678  5652
STARLINK-36695          
1 67702U 26025K   26066.81079905  .00099857  00000+0  66257-3 0  9992
2 67702  97.2867 178.2866 0001614 103.7340 256.4105 15.75189001  5646
STARLINK-36630          
1 67703U 26025L   26067.16668981  .00127456  00000+0  84504-3 0  9992
2 67703  97.2839 178.7568 0001419  83.5481 357.3112 15.75125450  5618
STARLINK-36338          
1 67704U 26025M   26066.91633194  .00186689  00000+0  12238-2 0  9990
2 67704  97.2826 178.4477 0002100  68.7910 291.3580 15.75219160  5664
STARLINK-36316          
1 67705U 26025N   26066.79916070  .00607056  00000+0  37474-2 0  9999
2 67705  97.2838 178.3028 0002183  25.4412 334.6961 15.75444909  5640
STARLINK-36707          
1 67706U 26025P   26066.77940096  .00607242  00000+0  37486-2 0  9993
2 67706  97.2845 178.3284 0002395  33.2356 326.9059 15.75444322  5643
STARLINK-36645          
1 67707U 26025Q   26067.05714769  .00215838  00000+0  14104-2 0  9990
2 67707  97.2857 178.5629 0001240  91.4775 268.6633 15.75211091  5680
STARLINK-36287          
1 67708U 26025R   26067.16668981  .00130649  00000+0  86623-3 0  9999
2 67708  97.2845 178.7667 0001341  82.3286  22.5372 15.75116073  5771
STARLINK-36698          
1 67709U 26025S   26067.16668981  .00104057  00000+0  69131-3 0  9999
2 67709  97.2842 178.7851 0001393  86.1446  62.6973 15.75147409  5613
STARLINK-36344          
1 67710U 26025T   26067.02927646  .00384201  00000+0  24593-2 0  9995
2 67710  97.2842 178.6009 0001899  76.2482 283.8994 15.75220619  5693
STARLINK-36687          
1 67711U 26025U   26066.94202827  .00218769  00000+0  11115-2 0  9994
2 67711  97.2840 178.5657 0001576  90.5918 269.5531 15.80873786  5687
STARLINK-36705          
1 67712U 26025V   26066.78327785  .00405216  00000+0  25711-2 0  9990
2 67712  97.2858 178.3191 0001282  26.5073 333.6257 15.75365956  5646
